SatCatId,ObjectName,LaunchYear,OrbitalPeriod,LaunchMass,StatusCode,Inclination,Status,UcsData,OrbitClassEstimated,LaunchSiteCountry,Owner,UseType,Purpose,LaunchVehicleClass,TLE1,TLE2,MeanMotion,Eccentricity,OrbitClass
64179,STARLINK-34194,2025,92.95,-1.0,+,53.16,Active,0,LEO,USA,USA,Unknown,Unknown,Unknown,1 64179U 25113K   25170.58335648  .00077616  00000+0  13921-2 0  9990,2 64179  53.1596 235.5499 0001652  83.1455 139.3501 15.49260793  4793,15.49260793,0.0001652,LEO
64180,STARLINK-34000,2025,92.95,-1.0,+,53.16,Active,0,LEO,USA,USA,Unknown,Unknown,Unknown,1 64180U 25113L   25170.58335648  .00074850  00000+0  13431-2 0  9995,2 64180  53.1597 235.5418 0001428  84.2568 142.0696 15.49264094  4755,15.49264094,0.0001428,LEO
64181,STARLINK-33917,2025,92.95,-1.0,+,53.16,Active,0,LEO,USA,USA,Unknown,Unknown,Unknown,1 64181U 25113M   25170.58335648  .00075516  00000+0  13549-2 0  9996,2 64181  53.1597 235.5376 0001350 101.6956 126.5477 15.49263540  4791,15.4926354,0.000135,LEO
64182,STARLINK-34131,2025,92.95,-1.0,+,53.16,Active,0,LEO,USA,USA,Unknown,Unknown,Unknown,1 64182U 25113N   25170.58335648  .00092764  00000+0  16579-2 0  9997,2 64182  53.1598 235.5332 0001425 101.4900 128.6292 15.49279795  4703,15.49279795,0.0001425,LEO
64183,STARLINK-34188,2025,92.95,-1.0,+,53.16,Active,0,LEO,USA,USA,Unknown,Unknown,Unknown,1 64183U 25113P   25170.58335648  .00075691  00000+0  13576-2 0  9992,2 64183  53.1595 235.5290 0001342  92.6560 139.3994 15.49271480  4795,15.4927148,0.0001342,LEO
64184,STARLINK-34197,2025,92.94,-1.0,+,53.16,Active,0,LEO,USA,USA,Unknown,Unknown,Unknown,1 64184U 25113Q   25170.83335648 -.01565498  00000+0 -30961-1 0  9999,2 64184  53.1595 234.3276 0001353  77.1517 111.9695 15.49540311  4784,15.49540311,0.0001353,LEO
64185,STARLINK-34063,2025,92.95,-1.0,+,53.16,Active,0,LEO,USA,USA,Unknown,Unknown,Unknown,1 64185U 25113R   25170.58335648  .00074163  00000+0  13302-2 0  9994,2 64185  53.1596 235.5207 0001377 101.8623 133.9904 15.49280706  4799,15.49280706,0.0001377,LEO
64186,STARLINK-34200,2025,92.95,-1.0,+,53.16,Active,0,LEO,USA,USA,Unknown,Unknown,Unknown,1 64186U 25113S   25170.58335648  .00077417  00000+0  13885-2 0  9996,2 64186  53.1594 235.5174 0001567  82.2805 155.5462 15.49262788  4795,15.49262788,0.0001567,LEO
64187,STARLINK-33934,2025,92.95,-1.0,+,53.16,Active,0,LEO,USA,USA,Unknown,Unknown,Unknown,1 64187U 25113T   25170.58335648  .00080566  00000+0  14441-2 0  9995,2 64187  53.1596 235.5124 0001218  95.4980 144.2437 15.49262120  4759,15.4926212,0.0001218,LEO
64188,STARLINK-33929,2025,92.95,-1.0,+,53.16,Active,0,LEO,USA,USA,Unknown,Unknown,Unknown,1 64188U 25113U   25170.58335648  .00076727  00000+0  13763-2 0  9996,2 64188  53.1594 235.5088 0001235 101.3874 140.2716 15.49263084  4795,15.49263084,0.0001235,LEO
64189,STARLINK-33872,2025,92.95,-1.0,+,53.16,Active,0,LEO,USA,USA,Unknown,Unknown,Unknown,1 64189U 25113V   25170.58335648  .00076798  00000+0  13776-2 0  9999,2 64189  53.1596 235.5055 0001574  81.1505 162.4289 15.49262207  4601,15.49262207,0.0001574,LEO
64190,STARLINK-34214,2025,92.95,-1.0,+,53.16,Active,0,LEO,USA,USA,Unknown,Unknown,Unknown,1 64190U 25113W   25170.58335648  .00073344  00000+0  13162-2 0  9994,2 64190  53.1597 235.5002 0001386 101.3819 144.0992 15.49270532  4797,15.49270532,0.0001386,LEO
64191,STARLINK-34222,2025,92.95,-1.0,+,53.16,Active,0,LEO,USA,USA,Unknown,Unknown,Unknown,1 64191U 25113X   25170.58335648  .00070989  00000+0  12746-2 0  9994,2 64191  53.1595 235.4962 0001320  93.6951 153.7119 15.49269929  4705,15.49269929,0.000132,LEO
64192,STARLINK-34265,2025,92.95,-1.0,+,53.16,Active,0,LEO,USA,USA,Unknown,Unknown,Unknown,1 64192U 25113Y   25170.58335648  .00074439  00000+0  13354-2 0  9995,2 64192  53.1599 235.4929 0001332  91.0594 158.2437 15.49273769  4756,15.49273769,0.0001332,LEO
64193,STARLINK-34245,2025,92.95,-1.0,+,53.16,Active,0,LEO,USA,USA,Unknown,Unknown,Unknown,1 64193U 25113Z   25170.58335648  .00076780  00000+0  13773-2 0  9992,2 64193  53.1596 235.4897 0001198  82.4068 168.8394 15.49261959  4766,15.49261959,0.0001198,LEO
64194,STARLINK-34237,2025,92.95,-1.0,+,53.16,Active,0,LEO,USA,USA,Unknown,Unknown,Unknown,1 64194U 25113AA  25170.58335648  .00086890  00000+0  15546-2 0  9996,2 64194  53.1595 235.4842 0001410 104.2967 148.8259 15.49279724  4705,15.49279724,0.000141,LEO
64195,STARLINK-33857,2025,92.95,-1.0,+,53.16,Active,0,LEO,USA,USA,Unknown,Unknown,Unknown,1 64195U 25113AB  25170.58335648  .00076476  00000+0  13719-2 0  9996,2 64195  53.1594 235.4821 0000986  78.5446 176.5341 15.49262763  4754,15.49262763,9.86e-05,LEO
64196,STARLINK-34173,2025,92.95,-1.0,+,53.16,Active,0,LEO,USA,USA,Unknown,Unknown,Unknown,1 64196U 25113AC  25170.58335648  .00075057  00000+0  13465-2 0  9999,2 64196  53.1595 235.4767 0001395  94.3231 162.6558 15.49269693  4797,15.49269693,0.0001395,LEO
64199,SHIJIAN-26 (SJ-26),2025,94.64,-1.0,+,97.49,Active,0,LEO,PRC,China,Unknown,Unknown,Unknown,1 64199U 25115A   25170.77629762  .00004490  00000+0  20193-3 0  9998,2 64199  97.4905 246.1239 0010894 174.4892 185.6465 15.21580131  3284,15.21580131,0.0010894,LEO
64202,NAVSTAR 84 (USA 545),2025,717.95,-1.0,+,54.97,Active,0,MEO,USA,USA,Unknown,Unknown,Unknown,1 64202U 25116A   25165.90158257 -.00000054  00000+0  00000+0 0  9993,2 64202  54.9678  45.9461 0001492 294.9842 260.3417  2.00571117   500,2.00571117,0.0001492,MEO
64203,STARLINK-33966,2025,91.9,-1.0,+,53.16,Active,0,LEO,USA,USA,Unknown,Unknown,Unknown,1 64203U 25117A   25170.83335648 -.01529341  00000+0 -16618-1 0  9995,2 64203  53.1598 186.0151 0000849  81.9646 304.6280 15.65762967  3173,15.65762967,8.49e-05,LEO
64204,STARLINK-34331,2025,91.9,-1.0,+,53.16,Active,0,LEO,USA,USA,Unknown,Unknown,Unknown,1 64204U 25117B   25170.83335648 -.01537275  00000+0 -16711-1 0  9995,2 64204  53.1600 186.0110 0000773  91.9423 296.5652 15.65769077  3185,15.65769077,7.73e-05,LEO
64205,STARLINK-34251,2025,91.9,-1.0,+,53.16,Active,0,LEO,USA,USA,Unknown,Unknown,Unknown,1 64205U 25117C   25170.83335648 -.01530295  00000+0 -16628-1 0  9998,2 64205  53.1600 186.0062 0000810  83.4473 306.9759 15.65765715  3173,15.65765715,8.1e-05,LEO
64206,STARLINK-34311,2025,91.9,-1.0,+,53.16,Active,0,LEO,USA,USA,Unknown,Unknown,Unknown,1 64206U 25117D   25170.83335648 -.01525925  00000+0 -16577-1 0  9996,2 64206  53.1601 186.0026 0000796  82.7700 309.5706 15.65762582  3184,15.65762582,7.96e-05,LEO
64207,STARLINK-34324,2025,91.9,-1.0,+,53.16,Active,0,LEO,USA,USA,Unknown,Unknown,Unknown,1 64207U 25117E   25170.83335648 -.01534429  00000+0 -16676-1 0  9996,2 64207  53.1598 185.9946 0000779  80.7016 315.4689 15.65769491  3179,15.65769491,7.79e-05,LEO
64208,STARLINK-34327,2025,91.9,-1.0,+,53.17,Active,0,LEO,USA,USA,Unknown,Unknown,Unknown,1 64208U 25117F   25170.83335648 -.01533060  00000+0 -16661-1 0  9991,2 64208  53.1598 185.9983 0000776  76.5961 317.6598 15.65767027  3165,15.65767027,7.76e-05,LEO
64209,STARLINK-33944,2025,91.9,-1.0,+,53.16,Active,0,LEO,USA,USA,Unknown,Unknown,Unknown,1 64209U 25117G   25170.83335648 -.01535221  00000+0 -16684-1 0  9998,2 64209  53.1599 185.9909 0000702  91.7284 306.3552 15.65772620  3172,15.6577262,7.02e-05,LEO
64210,STARLINK-34310,2025,91.9,-1.0,+,53.16,Active,0,LEO,USA,USA,Unknown,Unknown,Unknown,1 64210U 25117H   25170.83335648 -.01531752  00000+0 -16645-1 0  9992,2 64210  53.1601 185.9863 0000761  84.6822 315.3242 15.65767264  3186,15.65767264,7.61e-05,LEO
64211,STARLINK-34258,2025,91.9,-1.0,+,53.16,Active,0,LEO,USA,USA,Unknown,Unknown,Unknown,1 64211U 25117J   25170.83335648 -.01537714  00000+0 -16715-1 0  9995,2 64211  53.1599 185.9827 0000830  81.7394 320.1839 15.65770553  3183,15.65770553,8.3e-05,LEO
64212,STARLINK-34284,2025,91.9,-1.0,+,53.16,Active,0,LEO,USA,USA,Unknown,Unknown,Unknown,1 64212U 25117K   25170.83335648 -.01534757  00000+0 -16681-1 0  9992,2 64212  53.1599 185.9784 0000687  87.4738 316.3664 15.65768821  3189,15.65768821,6.87e-05,LEO
64213,STARLINK-34332,2025,91.9,-1.0,+,53.16,Active,0,LEO,USA,USA,Unknown,Unknown,Unknown,1 64213U 25117L   25170.83335648 -.01537410  00000+0 -16712-1 0  9997,2 64213  53.1596 185.9740 0000876  95.3943 310.3652 15.65769078  3170,15.65769078,8.76e-05,LEO
64214,STARLINK-34283,2025,91.9,-1.0,+,53.16,Active,0,LEO,USA,USA,Unknown,Unknown,Unknown,1 64214U 25117M   25170.83335648 -.01545337  00000+0 -16805-1 0  9998,2 64214  53.1597 185.9700 0000863  77.6434 330.0300 15.65774635  3187,15.65774635,8.63e-05,LEO
64215,STARLINK-34349,2025,91.9,-1.0,+,53.16,Active,0,LEO,USA,USA,Unknown,Unknown,Unknown,1 64215U 25117N   25170.83335648 -.01528845  00000+0 -16611-1 0  9999,2 64215  53.1599 185.9652 0000961  87.2209 322.3732 15.65763367  3185,15.65763367,9.61e-05,LEO
64216,STARLINK-34296,2025,91.9,-1.0,+,53.17,Active,0,LEO,USA,USA,Unknown,Unknown,Unknown,1 64216U 25117P   25170.83335648 -.01538792  00000+0 -16727-1 0  9990,2 64216  53.1599 185.9619 0000964  84.0971 327.4104 15.65771021  3177,15.65771021,9.64e-05,LEO
64217,STARLINK-34320,2025,91.9,-1.0,+,53.16,Active,0,LEO,USA,USA,Unknown,Unknown,Unknown,1 64217U 25117Q   25170.83335648 -.01535517  00000+0 -16689-1 0  9990,2 64217  53.1599 185.9537 0000939  86.3702 328.9730 15.65768410  3186,15.6576841,9.39e-05,LEO
64218,STARLINK-34300,2025,91.9,-1.0,+,53.16,Active,0,LEO,USA,USA,Unknown,Unknown,Unknown,1 64218U 25117R   25170.83335648 -.01538001  00000+0 -16718-1 0  9995,2 64218  53.1601 185.9578 0000924  78.9987 334.4254 15.65770446  3187,15.65770446,9.24e-05,LEO
64219,STARLINK-34323,2025,91.9,-1.0,+,53.17,Active,0,LEO,USA,USA,Unknown,Unknown,Unknown,1 64219U 25117S   25170.83335648 -.01535972  00000+0 -16694-1 0  9993,2 64219  53.1596 185.9491 0000928  83.5083 333.7509 15.65769303  3172,15.65769303,9.28e-05,LEO
64220,STARLINK-34328,2025,91.9,-1.0,+,53.16,Active,0,LEO,USA,USA,Unknown,Unknown,Unknown,1 64220U 25117T   25170.83335648 -.01531830  00000+0 -16646-1 0  9991,2 64220  53.1596 185.9443 0000925  86.2740 332.9044 15.65765686  3184,15.65765686,9.25e-05,LEO
